ORBCOMM FM05 [-]        
1 25117U 97084F   23352.45943128  .00001988  00000+0  64528-3 0  9998
2 25117  45.0156 104.1839 0001687 316.1117  43.9598 14.41864156361599
ORBCOMM FM06 [+]        
1 25118U 97084G   23353.40989455  .00002469  00000+0  79121-3 0  9998
2 25118  45.0153  99.8266 0000788 301.2888 170.7203 14.41838748362661
ORBCOMM FM07 [-]        
1 25119U 97084H   23353.44191373  .00002306  00000+0  74272-3 0  9999
2 25119  45.0145 100.1381 0002463 312.7882  47.2761 14.41780505362664
ORBCOMM FM03 [-]        
1 25158U 98007B   23353.23272649  .00001685  00000+0  67318-3 0  9993
2 25158 107.9744  96.5109 0046051 124.1630 236.3886 14.31602136345979
ORBCOMM FM04 [+]        
1 25159U 98007C   23353.24703697  .00001532  00000+0  61454-3 0  9993
2 25159 107.9728  99.3809 0041487 122.2384 238.2785 14.31861820346116
ORBCOMM FM17 [-]        
1 25413U 98046A   23352.93206564  .00001187  00000+0  48422-3 0  9991
2 25413  44.9961 310.3516 0003601 334.4991  25.5677 14.32617524324941
ORBCOMM FM18 [-]        
1 25414U 98046B   23352.77623358  .00001426  00000+0  54298-3 0  9992
2 25414  44.9938 241.1302 0004818  44.0349 316.0881 14.35210342325667
ORBCOMM FM19 [+]        
1 25415U 98046C   23352.81622223  .00001231  00000+0  47688-3 0  9997
2 25415  44.9946 242.1664 0003783  34.0913  70.8579 14.35062784325636
